{
  "type": "FeatureCollection",
  "features": [
    {
      "type": "Feature",
      "properties": {
        "norad_id": 33939,
        "name": "COSMOS 2251 DEB",
        "group": "cosmos-2251-debris",
        "lat": 62.38371930021899,
        "lon": 119.87930423684068,
        "alt_km": 559.8485844586567,
        "timestamp": "2025-12-09T18:55:17.624785+00:00",
        "meta_object_name": "COSMOS 2251 DEB",
        "meta_object_id": "1993-036EU",
        "meta_epoch": "2025-12-09T13:49:10.355520",
        "meta_mean_motion": 14.99487244,
        "meta_eccentricity": 0.00030929,
        "meta_inclination": 74.0073,
        "meta_ra_of_asc_node": 87.0662,
        "meta_arg_of_pericenter": 74.7778,
        "meta_mean_anomaly": 285.375,
        "meta_ephemeris_type": 0,
        "meta_classification_type": "U",
        "meta_norad_cat_id": 33939,
        "meta_element_set_no": 999,
        "meta_rev_at_epoch": 88705,
        "meta_bstar": 0.0045212336,
        "meta_mean_motion_dot": 0.00055912,
        "meta_mean_motion_ddot": 0,
        "tle_line1": "1 33939U 93036EU  25343.57581430  .00055912  00000+0  45212-2 0  9995",
        "tle_line2": "2 33939  74.0073  87.0662 0003092  74.7778 285.3750 14.99487244887053"
      },
      "geometry": {
        "type": "Point",
        "coordinates": [
          119.87930423684068,
          62.38371930021899
        ]
      }
    },
    {
      "type": "Feature",
      "properties": {
        "norad_id": 33940,
        "name": "COSMOS 2251 DEB",
        "group": "cosmos-2251-debris",
        "lat": -73.84981408981066,
        "lon": 67.90723449749109,
        "alt_km": 698.3330264168198,
        "timestamp": "2025-12-09T18:55:17.624795+00:00",
        "meta_object_name": "COSMOS 2251 DEB",
        "meta_object_id": "1993-036EV",
        "meta_epoch": "2025-12-09T11:13:59.928672",
        "meta_mean_motion": 14.58740723,
        "meta_eccentricity": 0.00114684,
        "meta_inclination": 74.0398,
        "meta_ra_of_asc_node": 149.7262,
        "meta_arg_of_pericenter": 229.2592,
        "meta_mean_anomaly": 161.5056,
        "meta_ephemeris_type": 0,
        "meta_classification_type": "U",
        "meta_norad_cat_id": 33940,
        "meta_element_set_no": 999,
        "meta_rev_at_epoch": 88546,
        "meta_bstar": 0.0016123777,
        "meta_mean_motion_dot": 7.514e-05,
        "meta_mean_motion_ddot": 0,
        "tle_line1": "1 33940U 93036EV  25343.46805473  .00007514  00000+0  16124-2 0  9996",
        "tle_line2": "2 33940  74.0398 149.7262 0011468 229.2592 161.5056 14.58740723885460"
      },
      "geometry": {
        "type": "Point",
        "coordinates": [
          67.90723449749109,
          -73.84981408981066
        ]
      }
    },
    {
      "type": "Feature",
      "properties": {
        "norad_id": 33942,
        "name": "COSMOS 2251 DEB",
        "group": "cosmos-2251-debris",
        "lat": -28.714228773913998,
        "lon": -88.75739948011024,
        "alt_km": 758.7162276753834,
        "timestamp": "2025-12-09T18:55:17.624805+00:00",
        "meta_object_name": "COSMOS 2251 DEB",
        "meta_object_id": "1993-036EX",
        "meta_epoch": "2025-12-09T12:55:25.054752",
        "meta_mean_motion": 14.37981533,
        "meta_eccentricity": 0.00201734,
        "meta_inclination": 74.0366,
        "meta_ra_of_asc_node": 280.7241,
        "meta_arg_of_pericenter": 4.6628,
        "meta_mean_anomaly": 112.3716,
        "meta_ephemeris_type": 0,
        "meta_classification_type": "U",
        "meta_norad_cat_id": 33942,
        "meta_element_set_no": 999,
        "meta_rev_at_epoch": 88088,
        "meta_bstar": 0.00043371173,
        "meta_mean_motion_dot": 1.288e-05,
        "meta_mean_motion_ddot": 0,
        "tle_line1": "1 33942U 93036EX  25343.53848443  .00001288  00000+0  43371-3 0  9997",
        "tle_line2": "2 33942  74.0366 280.7241 0020173   4.6628 112.3716 14.37981533880889"
      },
      "geometry": {
        "type": "Point",
        "coordinates": [
          -88.75739948011024,
          -28.714228773913998
        ]
      }
    },
    {
      "type": "Feature",
      "properties": {
        "norad_id": 33944,
        "name": "COSMOS 2251 DEB",
        "group": "cosmos-2251-debris",
        "lat": -30.8159232780048,
        "lon": 144.18500426358477,
        "alt_km": 846.7332821835635,
        "timestamp": "2025-12-09T18:55:17.624815+00:00",
        "meta_object_name": "COSMOS 2251 DEB",
        "meta_object_id": "1993-036EZ",
        "meta_epoch": "2025-12-09T08:26:22.268832",
        "meta_mean_motion": 14.37332524,
        "meta_eccentricity": 0.01120558,
        "meta_inclination": 74.0401,
        "meta_ra_of_asc_node": 315.1596,
        "meta_arg_of_pericenter": 55.6495,
        "meta_mean_anomaly": 56.9297,
        "meta_ephemeris_type": 0,
        "meta_classification_type": "U",
        "meta_norad_cat_id": 33944,
        "meta_element_set_no": 999,
        "meta_rev_at_epoch": 87979,
        "meta_bstar": 0.00058921002,
        "meta_mean_motion_dot": 1.864e-05,
        "meta_mean_motion_ddot": 0,
        "tle_line1": "1 33944U 93036EZ  25343.35164663  .00001864  00000+0  58921-3 0  9991",
        "tle_line2": "2 33944  74.0401 315.1596 0112055  55.6495  56.9297 14.37332524879791"
      },
      "geometry": {
        "type": "Point",
        "coordinates": [
          144.18500426358477,
          -30.8159232780048
        ]
      }
    },
    {
      "type": "Feature",
      "properties": {
        "norad_id": 33945,
        "name": "COSMOS 2251 DEB",
        "group": "cosmos-2251-debris",
        "lat": 31.93837613915732,
        "lon": -38.041005053945085,
        "alt_km": 758.6875963863695,
        "timestamp": "2025-12-09T18:55:17.624825+00:00",
        "meta_object_name": "COSMOS 2251 DEB",
        "meta_object_id": "1993-036FA",
        "meta_epoch": "2025-12-09T08:43:31.462176",
        "meta_mean_motion": 14.34596976,
        "meta_eccentricity": 0.00217718,
        "meta_inclination": 74.0295,
        "meta_ra_of_asc_node": 312.4537,
        "meta_arg_of_pericenter": 39.8197,
        "meta_mean_anomaly": 320.4547,
        "meta_ephemeris_type": 0,
        "meta_classification_type": "U",
        "meta_norad_cat_id": 33945,
        "meta_element_set_no": 999,
        "meta_rev_at_epoch": 87967,
        "meta_bstar": 0.00026628363,
        "meta_mean_motion_dot": 7.28e-06,
        "meta_mean_motion_ddot": 0,
        "tle_line1": "1 33945U 93036FA  25343.36355859  .00000728  00000+0  26628-3 0  9999",
        "tle_line2": "2 33945  74.0295 312.4537 0021771  39.8197 320.4547 14.34596976879679"
      },
      "geometry": {
        "type": "Point",
        "coordinates": [
          -38.041005053945085,
          31.93837613915732
        ]
      }
    },
    {
      "type": "Feature",
      "properties": {
        "norad_id": 33948,
        "name": "COSMOS 2251 DEB",
        "group": "cosmos-2251-debris",
        "lat": -48.81023959585851,
        "lon": 149.64316411821832,
        "alt_km": 794.2062791931776,
        "timestamp": "2025-12-09T18:55:17.624835+00:00",
        "meta_object_name": "COSMOS 2251 DEB",
        "meta_object_id": "1993-036FD",
        "meta_epoch": "2025-12-09T07:48:44.959968",
        "meta_mean_motion": 14.35623304,
        "meta_eccentricity": 0.00225633,
        "meta_inclination": 74.0354,
        "meta_ra_of_asc_node": 311.3985,
        "meta_arg_of_pericenter": 28.1911,
        "meta_mean_anomaly": 332.0458,
        "meta_ephemeris_type": 0,
        "meta_classification_type": "U",
        "meta_norad_cat_id": 33948,
        "meta_element_set_no": 999,
        "meta_rev_at_epoch": 87974,
        "meta_bstar": 0.00037266618,
        "meta_mean_motion_dot": 1.052e-05,
        "meta_mean_motion_ddot": 0,
        "tle_line1": "1 33948U 93036FD  25343.32552037  .00001052  00000+0  37267-3 0  9997",
        "tle_line2": "2 33948  74.0354 311.3985 0022563  28.1911 332.0458 14.35623304879743"
      },
      "geometry": {
        "type": "Point",
        "coordinates": [
          149.64316411821832,
          -48.81023959585851
        ]
      }
    },
    {
      "type": "Feature",
      "properties": {
        "norad_id": 33971,
        "name": "COSMOS 2251 DEB",
        "group": "cosmos-2251-debris",
        "lat": -68.6969681341851,
        "lon": 126.46142573816263,
        "alt_km": 769.5956853938069,
        "timestamp": "2025-12-09T18:55:17.624845+00:00",
        "meta_object_name": "COSMOS 2251 DEB",
        "meta_object_id": "1993-036FE",
        "meta_epoch": "2025-12-09T05:07:09.829344",
        "meta_mean_motion": 14.39716072,
        "meta_eccentricity": 0.0018384,
        "meta_inclination": 74.0252,
        "meta_ra_of_asc_node": 260.25,
        "meta_arg_of_pericenter": 1.3462,
        "meta_mean_anomaly": 155.0762,
        "meta_ephemeris_type": 0,
        "meta_classification_type": "U",
        "meta_norad_cat_id": 33971,
        "meta_element_set_no": 999,
        "meta_rev_at_epoch": 88088,
        "meta_bstar": 0.00054716,
        "meta_mean_motion_dot": 1.691e-05,
        "meta_mean_motion_ddot": 0,
        "tle_line1": "1 33971U 93036FE  25343.21330821  .00001691  00000+0  54716-3 0  9993",
        "tle_line2": "2 33971  74.0252 260.2500 0018384   1.3462 155.0762 14.39716072880888"
      },
      "geometry": {
        "type": "Point",
        "coordinates": [
          126.46142573816263,
          -68.6969681341851
        ]
      }
    }
  ]
}